*******************************************************************************
Ephemeris / WWW_USER Mon Mar 24 07:37:19 2025 Pasadena, USA      / Horizons    
*******************************************************************************
Target body name: (2018 RY7)                      {source: JPL#20}
Center body name: Earth (399)                     {source: DE441}
Center-site name: Mauna Kea
*******************************************************************************
Start time      : A.D. 2018-Dec-22 03:58:00.0000 UT      
Stop  time      : A.D. 2018-Dec-22 16:42:00.0000 UT      
Step-size       : 1 minutes
*******************************************************************************
Target pole/equ : undefined
Target radii    : undefined                                                    
Center geodetic : 204.5278, 19.8260847, 4.21024   {E-lon(deg),Lat(deg),Alt(km)}
Center cylindric: 204.5278, 6006.35451, 2151.0229 {E-lon(deg),Dxy(km),Dz(km)}
Center pole/equ : ITRF93                          {East-longitude positive}
Center radii    : 6378.137, 6378.137, 6356.752 km {Equator_a, b, pole_c}       
Target primary  : Sun
Vis. interferer : MOON (R_eq= 1737.400) km        {source: DE441}
Rel. light bend : Sun                             {source: DE441}
Rel. lght bnd GM: 1.3271E+11 km^3/s^2                                          
Small-body perts: Yes                             {source: SB441-N16}
Atmos refraction: NO (AIRLESS)
RA format       : HMS
Time format     : CAL 
Calendar mode   : Mixed Julian/Gregorian
RTS-only print  : NO       
EOP file        : eop.250321.p250617                                           
EOP coverage    : DATA-BASED 1962-JAN-20 TO 2025-MAR-21. PREDICTS-> 2025-JUN-16
Units conversion: 1 au= 149597870.700 km, c= 299792.458 km/s, 1 day= 86400.0 s 
Table cut-offs 1: Elevation (-90.0deg=NO ),Airmass (>38.000=NO), Daylight (YES)
Table cut-offs 2: Solar elongation (  0.0,180.0=NO ),Local Hour Angle( 0.0=NO )
Table cut-offs 3: RA/DEC angular rate (     0.0=NO )                           
*******************************************************************************
Initial IAU76/J2000 heliocentric ecliptic osculating elements (au, days, deg.):
  EPOCH=  2458422.5 ! 2018-Oct-31.00 (TDB)         Residual RMS= .22459        
   EC= .1470549687381346   QR= .8667733479166969   TP= 2458516.8896767548      
   OM= 2.838668085760325   W=  136.9006026425241   IN= 13.35135890147074       
  Equivalent ICRF heliocentric cartesian coordinates (au, au/d):
   X= 8.791791513870114E-01  Y= 4.508422091141234E-01  Z= 3.244113040133835E-01
  VX=-1.085418916943652E-02 VY= 1.006005810562689E-02 VZ= 7.673980932675997E-03
Asteroid physical parameters (km, seconds, rotational period in hours):        
   GM= n.a.                RAD= n.a.               ROTPER= n.a.                
   H= 24.4                 G= .150                 B-V= n.a.                   
                           ALBEDO= n.a.            STYP= n.a.                  
*******************************************************************************
 Date__(UT)__HR:MN     R.A._________(ICRF)_________DEC
******************************************************
$$SOE
 2018-Dec-22 06:01  m  19 13 16.158437 +40 27 35.43175
 2018-Dec-22 06:02  m  19 13 16.078149 +40 27 35.07525
 2018-Dec-22 06:03  m  19 13 15.997918 +40 27 34.71878
 2018-Dec-22 06:04  m  19 13 15.917745 +40 27 34.36233
 2018-Dec-22 06:05  m  19 13 15.837629 +40 27 34.00590
 2018-Dec-22 06:06  m  19 13 15.757570 +40 27 33.64951
 2018-Dec-22 06:07  m  19 13 15.677569 +40 27 33.29314
 2018-Dec-22 06:08  m  19 13 15.597625 +40 27 32.93681
 2018-Dec-22 06:09  m  19 13 15.517739 +40 27 32.58051
 2018-Dec-22 06:10  m  19 13 15.437909 +40 27 32.22425
 2018-Dec-22 06:11  m  19 13 15.358137 +40 27 31.86802
 2018-Dec-22 06:12  m  19 13 15.278422 +40 27 31.51183
 2018-Dec-22 06:13  m  19 13 15.198764 +40 27 31.15569
 2018-Dec-22 06:14  m  19 13 15.119163 +40 27 30.79958
 2018-Dec-22 06:15  m  19 13 15.039620 +40 27 30.44353
 2018-Dec-22 06:16  m  19 13 14.960133 +40 27 30.08751
 2018-Dec-22 06:17  m  19 13 14.880703 +40 27 29.73155
 2018-Dec-22 06:18  m  19 13 14.801330 +40 27 29.37564
 2018-Dec-22 06:19  m  19 13 14.722014 +40 27 29.01978
 2018-Dec-22 06:20  m  19 13 14.642755 +40 27 28.66397
 2018-Dec-22 06:21  m  19 13 14.563552 +40 27 28.30822
 2018-Dec-22 06:22  m  19 13 14.484406 +40 27 27.95253
 2018-Dec-22 06:23  m  19 13 14.405317 +40 27 27.59690
 2018-Dec-22 06:24  m  19 13 14.326284 +40 27 27.24133
 2018-Dec-22 06:25  m  19 13 14.247308 +40 27 26.88582
 2018-Dec-22 06:26  m  19 13 14.168388 +40 27 26.53038
 2018-Dec-22 06:27  m  19 13 14.089525 +40 27 26.17501
 2018-Dec-22 06:28  m  19 13 14.010718 +40 27 25.81971
 2018-Dec-22 06:29  m  19 13 13.931967 +40 27 25.46447
 2018-Dec-22 06:30  m  19 13 13.853272 +40 27 25.10931
 2018-Dec-22 06:31  m  19 13 13.774634 +40 27 24.75422
 2018-Dec-22 06:32  m  19 13 13.696051 +40 27 24.39921
 2018-Dec-22 06:33  m  19 13 13.617525 +40 27 24.04428
 2018-Dec-22 06:34  m  19 13 13.539055 +40 27 23.68943
 2018-Dec-22 06:35  m  19 13 13.460640 +40 27 23.33466
 2018-Dec-22 06:36  m  19 13 13.382282 +40 27 22.97998
 2018-Dec-22 06:37  m  19 13 13.303979 +40 27 22.62538
 2018-Dec-22 06:38  m  19 13 13.225732 +40 27 22.27087
 2018-Dec-22 06:39  m  19 13 13.147540 +40 27 21.91644
 2018-Dec-22 06:40  m  19 13 13.069404 +40 27 21.56211
 2018-Dec-22 06:41  m  19 13 12.991323 +40 27 21.20787
 2018-Dec-22 06:42  m  19 13 12.913298 +40 27 20.85373
 2018-Dec-22 06:43  m  19 13 12.835328 +40 27 20.49968
 2018-Dec-22 06:44  m  19 13 12.757413 +40 27 20.14573
 2018-Dec-22 06:45  m  19 13 12.679554 +40 27 19.79188
 2018-Dec-22 06:46  m  19 13 12.601749 +40 27 19.43814
 2018-Dec-22 06:47  m  19 13 12.524000 +40 27 19.08450
 2018-Dec-22 06:48  m  19 13 12.446305 +40 27 18.73096
 2018-Dec-22 06:49  m  19 13 12.368666 +40 27 18.37753
 2018-Dec-22 06:50  m  19 13 12.291081 +40 27 18.02421
 2018-Dec-22 06:51  m  19 13 12.213550 +40 27 17.67100
 2018-Dec-22 06:52  m  19 13 12.136075 +40 27 17.31790
 2018-Dec-22 06:53  m  19 13 12.058654 +40 27 16.96492
 2018-Dec-22 06:54  m  19 13 11.981287 +40 27 16.61206
 2018-Dec-22 06:55  m  19 13 11.903974 +40 27 16.25931
 2018-Dec-22 06:56  m  19 13 11.826716 +40 27 15.90668
 2018-Dec-22 06:57  m  19 13 11.749512 +40 27 15.55418
 2018-Dec-22 06:58  m  19 13 11.672362 +40 27 15.20180
 2018-Dec-22 06:59  m  19 13 11.595265 +40 27 14.84954
 2018-Dec-22 07:00  s  19 13 11.518223 +40 27 14.49741
 2018-Dec-22 07:01  m  19 13 11.441235 +40 27 14.14541
 2018-Dec-22 07:02  m  19 13 11.364300 +40 27 13.79354
 2018-Dec-22 07:03  m  19 13 11.287418 +40 27 13.44180
 2018-Dec-22 07:04  m  19 13 11.210591 +40 27 13.09020
 2018-Dec-22 07:05  m  19 13 11.133816 +40 27 12.73873
 2018-Dec-22 07:06  m  19 13 11.057095 +40 27 12.38740
 2018-Dec-22 07:07  m  19 13 10.980427 +40 27 12.03621
 2018-Dec-22 07:08  m  19 13 10.903812 +40 27 11.68516
 2018-Dec-22 07:09  m  19 13 10.827250 +40 27 11.33426
 2018-Dec-22 07:10  m  19 13 10.750741 +40 27 10.98350
 2018-Dec-22 07:11  m  19 13 10.674284 +40 27 10.63288
 2018-Dec-22 07:12  m  19 13 10.597881 +40 27 10.28242
 2018-Dec-22 07:13  m  19 13 10.521529 +40 27 09.93210
 2018-Dec-22 07:14  m  19 13 10.445231 +40 27 09.58193
 2018-Dec-22 07:15  m  19 13 10.368984 +40 27 09.23192
 2018-Dec-22 07:16  m  19 13 10.292790 +40 27 08.88206
 2018-Dec-22 07:17  m  19 13 10.216648 +40 27 08.53236
 2018-Dec-22 07:18  m  19 13 10.140558 +40 27 08.18282
 2018-Dec-22 07:19  m  19 13 10.064519 +40 27 07.83344
 2018-Dec-22 07:20  m  19 13 09.988533 +40 27 07.48422
 2018-Dec-22 07:21  m  19 13 09.912598 +40 27 07.13516
 2018-Dec-22 07:22  m  19 13 09.836715 +40 27 06.78627
 2018-Dec-22 07:23  m  19 13 09.760883 +40 27 06.43755
 2018-Dec-22 07:24  m  19 13 09.685102 +40 27 06.08899
 2018-Dec-22 07:25  m  19 13 09.609373 +40 27 05.74061
 2018-Dec-22 07:26  m  19 13 09.533694 +40 27 05.39239
 2018-Dec-22 07:27  m  19 13 09.458067 +40 27 05.04435
 2018-Dec-22 07:28  m  19 13 09.382490 +40 27 04.69649
 2018-Dec-22 07:29  m  19 13 09.306964 +40 27 04.34880
 2018-Dec-22 07:30  m  19 13 09.231489 +40 27 04.00129
 2018-Dec-22 07:31  m  19 13 09.156064 +40 27 03.65396
 2018-Dec-22 07:32  m  19 13 09.080689 +40 27 03.30682
 2018-Dec-22 07:33  m  19 13 09.005364 +40 27 02.95985
 2018-Dec-22 07:34  m  19 13 08.930090 +40 27 02.61308
 2018-Dec-22 07:35  m  19 13 08.854865 +40 27 02.26649
 2018-Dec-22 07:36  m  19 13 08.779691 +40 27 01.92008
 2018-Dec-22 07:37  m  19 13 08.704566 +40 27 01.57387
 2018-Dec-22 07:38  m  19 13 08.629490 +40 27 01.22785
 2018-Dec-22 07:39  m  19 13 08.554464 +40 27 00.88203
 2018-Dec-22 07:40  m  19 13 08.479487 +40 27 00.53639
 2018-Dec-22 07:41  m  19 13 08.404559 +40 27 00.19096
 2018-Dec-22 07:42  m  19 13 08.329680 +40 26 59.84572
 2018-Dec-22 07:43  m  19 13 08.254850 +40 26 59.50069
 2018-Dec-22 07:44  m  19 13 08.180069 +40 26 59.15585
 2018-Dec-22 07:45  m  19 13 08.105337 +40 26 58.81122
 2018-Dec-22 07:46  m  19 13 08.030652 +40 26 58.46679
 2018-Dec-22 07:47  m  19 13 07.956016 +40 26 58.12257
 2018-Dec-22 07:48  m  19 13 07.881429 +40 26 57.77856
 2018-Dec-22 07:49  m  19 13 07.806889 +40 26 57.43475
 2018-Dec-22 07:50  m  19 13 07.732397 +40 26 57.09116
 2018-Dec-22 07:51  m  19 13 07.657953 +40 26 56.74778
 2018-Dec-22 07:52  m  19 13 07.583556 +40 26 56.40461
 2018-Dec-22 07:53  m  19 13 07.509207 +40 26 56.06166
 2018-Dec-22 07:54  m  19 13 07.434905 +40 26 55.71893
 2018-Dec-22 07:55  m  19 13 07.360651 +40 26 55.37642
 2018-Dec-22 07:56  m  19 13 07.286443 +40 26 55.03412
 2018-Dec-22 07:57  m  19 13 07.212282 +40 26 54.69205
 2018-Dec-22 07:58  m  19 13 07.138168 +40 26 54.35020
 2018-Dec-22 07:59  m  19 13 07.064100 +40 26 54.00858
 2018-Dec-22 08:00  m  19 13 06.990079 +40 26 53.66719
 2018-Dec-22 08:01  m  19 13 06.916104 +40 26 53.32602
 2018-Dec-22 08:02  m  19 13 06.842175 +40 26 52.98508
 2018-Dec-22 08:03  m  19 13 06.768292 +40 26 52.64437
